{
  "EpochDate": "2019-05-26", // Date of simulation start (YYYY-MM-DD)
  "Duration": 135, // Length of simulation (days)
  "centralBody": 3, // 0: Sol, 3: Earth, 5: Jupiter
  "objects": [
    {
      "radius": 1,
      "dataType": 2, // 0: Orbital elements, 1: state vector, 2: TLEs
      "TLELine1": "0 FLOCK 3P 76",
      "TLELine2": "1 42019U 17008BZ  19146.85765507  .00000982  00000-0  41800-4 0  9992",
      "TLELine3": "2 42019  97.4108 214.4233 0007070 215.6542 144.4225 15.25344530126312"
    },
    {
      "radius": 1,
      "dataType": 2, // 0: Orbital elements, 1: state vector, 2: TLEs
      "TLELine1": "0 FLOCK 2K 28",
      "TLELine2": "1 42880U 17042BH  19146.65143751  .00000935  00000-0  28968-4 0  9993",
      "TLELine3": "2 42880  96.9431  28.7626 0010825 309.7236  50.3054 15.35737860104291"
    },
    {
      "radius": 1,
      "dataType": 2, // 0: Orbital elements, 1: state vector, 2: TLEs
      "TLELine1": "0 FLOCK 3P 46",
      "TLELine2": "1 42031U 17008CM  19146.76768817  .00000581  00000-0  25913-4 0  9995",
      "TLELine3": "2 42031  97.4076 214.0760 0006355 233.4186 126.6467 15.25334719126440"
    },
    {
      "radius": 1,
      "dataType": 2, // 0: Orbital elements, 1: state vector, 2: TLEs
      "TLELine1": "0 CHEFSAT",
      "TLELine2": "1 43044U 17071H   19146.51352560 +.00003500 +00000-0 +85656-4 0  9991",
      "TLELine3": "2 43044 051.6373 161.4355 0005200 069.9003 290.2543 15.43617506082543"
    },
    {
      "radius": 1,
      "dataType": 2, // 0: Orbital elements, 1: state vector, 2: TLEs
      "TLELine1": "0 LUME-1",
      "TLELine2": "1 43908U 18111AJ  19146.69293691  .00000664  00000-0  29870-4 0  9998",
      "TLELine3": "2 43908  97.2918  52.5694 0023463  73.9135 286.4684 15.24283809 22946"
    },
    {
      "radius": 1,
      "dataType": 2, // 0: Orbital elements, 1: state vector, 2: TLEs
      "TLELine1": "0 PEGASUS",
      "TLELine2": "1 42784U 17036V   19146.16317311  .00000718  00000-0  34010-4 0  9994",
      "TLELine3": "2 42784  97.3531 204.5031 0010799 319.4125  40.6305 15.22437415106684"
    },
    {
      "radius": 1,
      "dataType": 2, // 0: Orbital elements, 1: state vector, 2: TLEs
      "TLELine1": "0 DIAMOND RED",
      "TLELine2": "1 42783U 17036U   19146.83700756  .00000570  00000-0  27832-4 0  9996",
      "TLELine3": "2 42783  97.3527 204.9544 0010855 317.2153  42.8237 15.22151276106777"
    },
    {
      "radius": 1,
      "dataType": 2, // 0: Orbital elements, 1: state vector, 2: TLEs
      "TLELine1": "0 FLOCK 2P 5",
      "TLELine2": "1 41616U 16040T   19146.85597256  .00001030  00000-0  43611-4 0  9990",
      "TLELine3": "2 41616  97.3749 212.5677 0011933 109.2096 251.0435 15.25376823162598"
    },
    {
      "radius": 1,
      "dataType": 2, // 0: Orbital elements, 1: state vector, 2: TLEs
      "TLELine1": "0 EXOCUBE",
      "TLELine2": "1 40380U 15003E   19146.83686734  .00000426  00000-0  23792-4 0  9999",
      "TLELine3": "2 40380  99.1131 113.5163 0140034 194.7234 164.9896 15.13440811237916"
    },
    {
      "radius": 1,
      "dataType": 2, // 0: Orbital elements, 1: state vector, 2: TLEs
      "TLELine1": "0 FLOCK 3P 77",
      "TLELine2": "1 42025U 17008CF  19146.85879055 +.00001386 +00000-0 +57761-4 0  9995",
      "TLELine3": "2 42025 097.4105 214.3889 0006888 216.2971 143.7800 15.25388019126323"
    },
    {
      "radius": 1,
      "dataType": 2, // 0: Orbital elements, 1: state vector, 2: TLEs
      "TLELine1": "0 FLOCK 3P 64",
      "TLELine2": "1 42034U 17008CQ  19146.76364284 +.00000669 +00000-0 +29370-4 0  9996",
      "TLELine3": "2 42034 097.4077 214.0717 0006037 237.5943 122.4711 15.25352650126461"
    },
    {
      "radius": 1,
      "dataType": 2, // 0: Orbital elements, 1: state vector, 2: TLEs
      "TLELine1": "0 SSU 3",
      "TLELine2": "1  8884U 76038J   19146.49075986 -.00000103  00000-0  10144-4 0  9990",
      "TLELine3": "2  8884  63.3201 128.0793 0642049 145.6892 218.7423 13.85517081  4566"
    },
    {
      "radius": 1,
      "dataType": 2, // 0: Orbital elements, 1: state vector, 2: TLEs
      "TLELine1": "0 ROBUSTA 1B",
      "TLELine2": "1 42792U 17036AD  19146.84703375 +.00000697 +00000-0 +32666-4 0  9998",
      "TLELine3": "2 42792 097.3532 205.5443 0009754 317.5025 042.5456 15.22910269106815"
    },
    {
      "radius": 1,
      "dataType": 2, // 0: Orbital elements, 1: state vector, 2: TLEs
      "TLELine1": "0 RESURS P3",
      "TLELine2": "1 41386U 16016A   19146.49765137  .00000292  00000-0  11381-4 0  9990",
      "TLELine3": "2 41386  97.2544 237.3380 0008165  90.5157 324.2655 15.33388032178995"
    },
    {
      "radius": 1,
      "dataType": 2, // 0: Orbital elements, 1: state vector, 2: TLEs
      "TLELine1": "0 SKYSAT C9",
      "TLELine2": "1 42989U 17068C   19146.84497234 +.00000280 +00000-0 +15356-4 0  9990",
      "TLELine3": "2 42989 097.4306 261.1283 0001603 085.9233 274.2186 15.21803915086948"
    },
    {
      "radius": 1,
      "dataType": 2, // 0: Orbital elements, 1: state vector, 2: TLEs
      "TLELine1": "0 M3MSAT",
      "TLELine2": "1 41605U 16040G   19146.74791521 +.00000284 +00000-0 +15818-4 0  9995",
      "TLELine3": "2 41605 097.3657 207.6808 0013828 115.3756 244.8913 15.21042114162355"
    },
    {
      "radius": 1,
      "dataType": 2, // 0: Orbital elements, 1: state vector, 2: TLEs
      "TLELine1": "0 GLOBAL-1",
      "TLELine2": "1 43730U 18096M   19146.71888986 +.00000528 +00000-0 +22836-4 0  9997",
      "TLELine3": "2 43730 097.4637 216.8635 0021451 060.1089 300.2277 15.26714411027241"
    },
    {
      "radius": 1,
      "dataType": 2, // 0: Orbital elements, 1: state vector, 2: TLEs
      "TLELine1": "0 VZLUSAT 1",
      "TLELine2": "1 42790U 17036AB  19146.75369099 +.00000941 +00000-0 +42509-4 0  9996",
      "TLELine3": "2 42790 097.3545 205.7233 0009690 316.0987 043.9479 15.23374293106807"
    },
    {
      "radius": 1,
      "dataType": 2, // 0: Orbital elements, 1: state vector, 2: TLEs
      "TLELine1": "0 FLOCK 3P 42",
      "TLELine2": "1 42008U 17008BN  19146.43803205  .00000924  00000-0  39498-4 0  9998",
      "TLELine3": "2 42008  97.4079 213.7568 0006306 235.6966 124.3676 15.25338042126344"
    },
    {
      "radius": 1,
      "dataType": 2, // 0: Orbital elements, 1: state vector, 2: TLEs
      "TLELine1": "0 FLOCK 3P 33",
      "TLELine2": "1 41990U 17008AU  19146.85224661  .00000593  00000-0  26395-4 0  9990",
      "TLELine3": "2 41990  97.4080 214.1545 0006450 211.1241 148.9616 15.25335110125809"
    },
    {
      "radius": 1,
      "dataType": 2, // 0: Orbital elements, 1: state vector, 2: TLEs
      "TLELine1": "0 LEMUR 2 MCPEAKE",
      "TLELine2": "1 42782U 17036T   19146.71664688 +.00000795 +00000-0 +36686-4 0  9991",
      "TLELine3": "2 42782 097.3554 205.5447 0010362 313.6101 046.4276 15.23052796106783"
    },
    {
      "radius": 1,
      "dataType": 2, // 0: Orbital elements, 1: state vector, 2: TLEs
      "TLELine1": "0 OBJECT B",
      "TLELine2": "1 44042U 18092D   19146.92978628 +.00000029 +00000-0 +11474-4 0  9998",
      "TLELine3": "2 44042 051.6407 119.6222 0003313 033.0919 327.0302 15.36702777029493"
    },
    {
      "radius": 1,
      "dataType": 2, // 0: Orbital elements, 1: state vector, 2: TLEs
      "TLELine1": "0 VENTA 1",
      "TLELine2": "1 42791U 17036AC  19146.82229507 +.00000625 +00000-0 +29703-4 0  9994",
      "TLELine3": "2 42791 097.3530 205.4301 0009838 317.2729 042.7742 15.22765047106783"
    },
    {
      "radius": 1,
      "dataType": 2, // 0: Orbital elements, 1: state vector, 2: TLEs
      "TLELine1": "0 KEPLER-1 (CASE)",
      "TLELine2": "1 43729U 18096L   19146.78369721  .00001425  00000-0  56383-4 0  9994",
      "TLELine3": "2 43729  97.4619 216.8779 0019807  60.6261 299.6953 15.26963891 27247"
    },
    {
      "radius": 1,
      "dataType": 2, // 0: Orbital elements, 1: state vector, 2: TLEs
      "TLELine1": "0 LEMUR 2 LUCYBRYCE",
      "TLELine2": "1 42773U 17036J   19146.81233316 +.00000643 +00000-0 +30881-4 0  9995",
      "TLELine3": "2 42773 097.3556 204.9446 0012409 303.1089 056.8956 15.22327894106772"
    },
    {
      "radius": 1,
      "dataType": 2, // 0: Orbital elements, 1: state vector, 2: TLEs
      "TLELine1": "0 NUSAT 1",
      "TLELine2": "1 41557U 16033B   19146.52165785  .00000847  00000-0  34517-4 0  9998",
      "TLELine3": "2 41557  97.4173 234.1572 0014454  26.6628 333.5351 15.27156126166559"
    },
    {
      "radius": 1,
      "dataType": 2, // 0: Orbital elements, 1: state vector, 2: TLEs
      "TLELine1": "0 FLOCK 4A 13",
      "TLELine2": "1 44102U 19018AA  19146.75310372  .00000398  00000-0  20323-4 0  9993",
      "TLELine3": "2 44102  97.4577 206.8839 0014266 102.6031 257.6801 15.22281162  8423"
    },
    {
      "radius": 1,
      "dataType": 2, // 0: Orbital elements, 1: state vector, 2: TLEs
      "TLELine1": "0 HIBER-1",
      "TLELine2": "1 43744U 18096AB  19146.78723354  .00001097  00000-0  44170-4 0  9993",
      "TLELine3": "2 43744  97.4617 216.8691 0019842  60.3588 299.9623 15.26885136 27245"
    },
    {
      "radius": 1,
      "dataType": 2, // 0: Orbital elements, 1: state vector, 2: TLEs
      "TLELine1": "0 COSMOS 1408",
      "TLELine2": "1 13552U 82092A   19146.47910018  .00000681  00000-0  24015-4 0  9999",
      "TLELine3": "2 13552  82.5662 304.8642 0019772  67.7748 292.5586 15.27233589  5152"
    },
    {
      "radius": 1,
      "dataType": 2, // 0: Orbital elements, 1: state vector, 2: TLEs
      "TLELine1": "0 COSMOS 1356",
      "TLELine2": "1 13153U 82039A   19146.47409913  .00001138  00000-0  28800-4 0  9998",
      "TLELine3": "2 13153  81.0897 109.3813 0003178 137.9937 222.1547 15.38893279 28436"
    }
  ]
}